{
  "type": "FeatureCollection",
  "features": [
    {
      "type": "Feature",
      "id": "frozen-legacies-lyra:125",
      "geometry": {
        "type": "MultiLineString",
        "coordinates": [
          [
            [
              166.131981,
              -78.932095
            ],
            [
              170.555154,
              -79.602703
            ]
          ],
          [
            [
              -171.96351,
              -80.153897
            ],
            [
              -167.032038,
              -80.1398
            ],
            [
              -162.184242,
              -80.052003
            ]
          ],
          [
            [
              166.116874,
              -78.949994
            ],
            [
              166.003467,
              -79.136594
            ],
            [
              166.256071,
              -79.299497
            ],
            [
              169.675047,
              -79.544002
            ],
            [
              170.630548,
              -79.606792
            ]
          ],
          [
            [
              -179.753996,
              -80.040996
            ],
            [
              -178.646487,
              -80.065502
            ],
            [
              -177.745992,
              -80.077694
            ],
            [
              -175.32411,
              -80.106198
            ],
            [
              -174.238511,
              -80.129392
            ],
            [
              -171.864923,
              -80.152493
            ],
            [
              -170.674116,
              -80.1593
            ],
            [
              -166.934733,
              -80.138503
            ],
            [
              -165.768735,
              -80.121994
            ],
            [
              -162.085549,
              -80.050599
            ],
            [
              -161.019542,
              -80.024599
            ],
            [
              -155.990561,
              -79.845005
            ],
            [
              -154.883264,
              -79.794301
            ]
          ],
          [
            [
              -155.950537,
              -80.293707
            ],
            [
              -157.356839,
              -80.355306
            ],
            [
              -158.724353,
              -80.405903
            ]
          ],
          [
            [
              166.107169,
              -78.967801
            ],
            [
              165.99097,
              -79.1517
            ],
            [
              166.323162,
              -79.303601
            ],
            [
              169.754545,
              -79.548
            ],
            [
              170.704553,
              -79.612301
            ]
          ],
          [
            [
              -179.647094,
              -80.043697
            ],
            [
              -178.554691,
              -80.065502
            ],
            [
              -177.644599,
              -80.080501
            ],
            [
              -175.214506,
              -80.108991
            ],
            [
              -174.133013,
              -80.130795
            ],
            [
              -171.766215,
              -80.153898
            ],
            [
              -170.575423,
              -80.1593
            ],
            [
              -166.825037,
              -80.135695
            ],
            [
              -165.670043,
              -80.120605
            ],
            [
              -161.988351,
              -80.047898
            ],
            [
              -160.927746,
              -80.018999
            ],
            [
              -155.896065,
              -79.842304
            ],
            [
              -154.702356,
              -79.784703
            ]
          ],
          [
            [
              -156.055137,
              -80.2992
            ],
            [
              -157.469648,
              -80.360799
            ],
            [
              -158.835849,
              -80.410008
            ]
          ],
          [
            [
              166.097571,
              -78.9884
            ],
            [
              165.979969,
              -79.163998
            ],
            [
              166.384869,
              -79.310498
            ],
            [
              169.823147,
              -79.552196
            ],
            [
              170.78405,
              -79.61639
            ]
          ],
          [
            [
              -179.545593,
              -80.04649
            ],
            [
              -178.453296,
              -80.068203
            ],
            [
              -177.5418,
              -80.081798
            ],
            [
              -175.104812,
              -80.111691
            ],
            [
              -174.008211,
              -80.133496
            ],
            [
              -171.666224,
              -80.155195
            ],
            [
              -170.475417,
              -80.1593
            ],
            [
              -166.731929,
              -80.135695
            ],
            [
              -165.572737,
              -80.119202
            ],
            [
              -161.891046,
              -80.045106
            ],
            [
              -160.831845,
              -80.016298
            ],
            [
              -155.805565,
              -79.835407
            ],
            [
              -154.609262,
              -79.779302
            ]
          ],
          [
            [
              -156.170738,
              -80.304709
            ],
            [
              -157.585249,
              -80.364904
            ],
            [
              -158.951344,
              -80.414005
            ]
          ],
          [
            [
              166.085181,
              -79.004895
            ],
            [
              165.968875,
              -79.176404
            ],
            [
              166.453472,
              -79.317303
            ],
            [
              169.893048,
              -79.556301
            ],
            [
              170.864952,
              -79.620495
            ]
          ],
          [
            [
              -179.448287,
              -80.04919
            ],
            [
              -178.355899,
              -80.069591
            ],
            [
              -177.433493,
              -80.083202
            ],
            [
              -174.986907,
              -80.114392
            ],
            [
              -173.799915,
              -80.136197
            ],
            [
              -171.567515,
              -80.155195
            ],
            [
              -170.361617,
              -80.157896
            ],
            [
              -166.633235,
              -80.134398
            ],
            [
              -165.479643,
              -80.117905
            ],
            [
              -161.79374,
              -80.042298
            ],
            [
              -160.722149,
              -80.014895
            ],
            [
              -155.717857,
              -79.832707
            ],
            [
              -154.521463,
              -79.773809
            ]
          ],
          [
            [
              -156.273934,
              -80.30741
            ],
            [
              -157.691146,
              -80.369008
            ],
            [
              -159.061451,
              -80.415409
            ]
          ],
          [
            [
              166.080969,
              -79.024091
            ],
            [
              165.954974,
              -79.187299
            ],
            [
              166.515163,
              -79.322796
            ],
            [
              169.961545,
              -79.563091
            ],
            [
              170.94175,
              -79.624599
            ]
          ],
          [
            [
              -179.34549,
              -80.049099
            ],
            [
              -177.336204,
              -80.083095
            ],
            [
              -174.877212,
              -80.115796
            ],
            [
              -173.690311,
              -80.137601
            ],
            [
              -171.474422,
              -80.155195
            ],
            [
              -170.26712,
              -80.157896
            ],
            [
              -166.538738,
              -80.134398
            ],
            [
              -165.382339,
              -80.115097
            ],
            [
              -161.69784,
              -80.041001
            ],
            [
              -160.627651,
              -80.010805
            ],
            [
              -155.612358,
              -79.828603
            ],
            [
              -154.43516,
              -79.769704
            ]
          ],
          [
            [
              -156.381234,
              -80.314307
            ],
            [
              -157.809447,
              -80.373006
            ],
            [
              -159.194844,
              -80.420902
            ]
          ],
          [
            [
              166.075369,
              -79.039197
            ],
            [
              165.937075,
              -79.203793
            ],
            [
              166.586467,
              -79.328197
            ],
            [
              170.035549,
              -79.567196
            ],
            [
              171.017143,
              -79.628597
            ]
          ],
          [
            [
              -179.255097,
              -80.053295
            ],
            [
              -178.155903,
              -80.072292
            ],
            [
              -177.227897,
              -80.085903
            ],
            [
              -174.773102,
              -80.118497
            ],
            [
              -173.58611,
              -80.140393
            ],
            [
              -171.368923,
              -80.156599
            ],
            [
              -170.175323,
              -80.157896
            ],
            [
              -166.446926,
              -80.130202
            ],
            [
              -165.28363,
              -80.113693
            ],
            [
              -161.595041,
              -80.036897
            ],
            [
              -160.528943,
              -80.009401
            ],
            [
              -155.520454,
              -79.824498
            ],
            [
              -154.343363,
              -79.764211
            ]
          ],
          [
            [
              -156.483041,
              -80.318304
            ],
            [
              -157.918136,
              -80.377202
            ],
            [
              -159.302144,
              -80.423603
            ]
          ],
          [
            [
              166.064382,
              -79.054303
            ],
            [
              165.936967,
              -79.216092
            ],
            [
              166.65916,
              -79.335094
            ],
            [
              170.105449,
              -79.5713
            ],
            [
              171.102149,
              -79.635494
            ]
          ],
          [
            [
              -179.152298,
              -80.055996
            ],
            [
              -178.058491,
              -80.074993
            ],
            [
              -177.115501,
              -80.0872
            ],
            [
              -174.66481,
              -80.119901
            ],
            [
              -173.487507,
              -80.140302
            ],
            [
              -171.259212,
              -80.158003
            ],
            [
              -170.075226,
              -80.157896
            ],
            [
              -166.353833,
              -80.130202
            ],
            [
              -165.191833,
              -80.110992
            ],
            [
              -161.500544,
              -80.034104
            ],
            [
              -160.434446,
              -80.005297
            ],
            [
              -155.430062,
              -79.820302
            ],
            [
              -154.250162,
              -79.758703
            ]
          ],
          [
            [
              -156.593134,
              -80.322409
            ],
            [
              -158.035141,
              -80.3812
            ],
            [
              -159.417746,
              -80.429096
            ]
          ],
          [
            [
              166.054677,
              -79.06799
            ],
            [
              165.928667,
              -79.228497
            ],
            [
              166.718059,
              -79.339199
            ],
            [
              170.178157,
              -79.57809
            ],
            [
              171.17884,
              -79.636791
            ]
          ],
          [
            [
              -179.05089,
              -80.055996
            ],
            [
              -177.955694,
              -80.074993
            ],
            [
              -176.900308,
              -80.089992
            ],
            [
              -174.555206,
              -80.122601
            ],
            [
              -173.382008,
              -80.14169
            ],
            [
              -171.166013,
              -80.156599
            ],
            [
              -169.973816,
              -80.159193
            ],
            [
              -166.253735,
              -80.130202
            ],
            [
              -165.083633,
              -80.1082
            ],
            [
              -161.397745,
              -80.032807
            ],
            [
              -160.341245,
              -80.002596
            ],
            [
              -155.335458,
              -79.819005
            ],
            [
              -154.170665,
              -79.751806
            ]
          ],
          [
            [
              -156.693644,
              -80.329306
            ],
            [
              -158.154847,
              -80.386708
            ],
            [
              -159.541556,
              -80.429005
            ]
          ],
          [
            [
              166.044972,
              -79.083096
            ],
            [
              165.914873,
              -79.240796
            ],
            [
              166.789362,
              -79.3446
            ],
            [
              170.252146,
              -79.583599
            ],
            [
              171.254248,
              -79.640896
            ]
          ],
          [
            [
              -178.953493,
              -80.058697
            ],
            [
              -177.843404,
              -80.076397
            ],
            [
              -176.694696,
              -80.092693
            ],
            [
              -174.445512,
              -80.125302
            ],
            [
              -171.066022,
              -80.157896
            ],
            [
              -169.880723,
              -80.157896
            ],
            [
              -166.155041,
              -80.128798
            ],
            [
              -164.995942,
              -80.105499
            ],
            [
              -161.30865,
              -80.028597
            ],
            [
              -160.243955,
              -79.999804
            ],
            [
              -155.246468,
              -79.812108
            ],
            [
              -154.077464,
              -79.749105
            ]
          ],
          [
            [
              -156.798243,
              -80.332007
            ],
            [
              -158.270341,
              -80.390798
            ],
            [
              -159.648856,
              -80.434498
            ]
          ],
          [
            [
              166.036671,
              -79.096799
            ],
            [
              165.899675,
              -79.253201
            ],
            [
              166.852366,
              -79.347393
            ],
            [
              170.323451,
              -79.589092
            ],
            [
              171.336539,
              -79.642299
            ]
          ],
          [
            [
              -178.856187,
              -80.061397
            ],
            [
              -174.34131,
              -80.126691
            ],
            [
              -170.972821,
              -80.1593
            ],
            [
              -169.782121,
              -80.157804
            ],
            [
              -166.059141,
              -80.126098
            ],
            [
              -164.89734,
              -80.105499
            ],
            [
              -161.212749,
              -80.0273
            ],
            [
              -160.146651,
              -79.998507
            ],
            [
              -155.158761,
              -79.809407
            ],
            [
              -153.976069,
              -79.742299
            ]
          ],
          [
            [
              -156.91244,
              -80.337499
            ],
            [
              -158.387346,
              -80.393605
            ],
            [
              -159.772651,
              -80.435902
            ]
          ],
          [
            [
              166.029668,
              -79.110501
            ],
            [
              165.877671,
              -79.2655
            ],
            [
              166.915461,
              -79.354198
            ],
            [
              170.40565,
              -79.593197
            ],
            [
              171.410544,
              -79.647793
            ]
          ],
          [
            [
              -170.872816,
              -80.1593
            ],
            [
              -169.683427,
              -80.157804
            ],
            [
              -165.959135,
              -80.124694
            ],
            [
              -164.804139,
              -80.105499
            ],
            [
              -161.116847,
              -80.025896
            ],
            [
              -160.050749,
              -79.994402
            ],
            [
              -155.062859,
              -79.805303
            ]
          ],
          [
            [
              -157.021145,
              -80.341604
            ],
            [
              -158.491945,
              -80.397602
            ],
            [
              -159.889655,
              -80.440005
            ]
          ],
          [
            [
              166.015873,
              -79.125592
            ],
            [
              165.865174,
              -79.279202
            ],
            [
              166.98536,
              -79.3596
            ],
            [
              170.48115,
              -79.597194
            ],
            [
              171.48734,
              -79.651897
            ]
          ],
          [
            [
              -170.768614,
              -80.157896
            ],
            [
              -169.583422,
              -80.156492
            ],
            [
              -165.861829,
              -80.123398
            ],
            [
              -164.706835,
              -80.104095
            ],
            [
              -159.958952,
              -79.992998
            ]
          ],
          [
            [
              -157.138042,
              -80.347112
            ],
            [
              -160.006554,
              -80.442706
            ]
          ]
        ]
      },
      "properties": {
        "dataset_id": "frozen-legacies-lyra",
        "flight": "125",
        "observations": 252,
        "segments": 38,
        "sources": [
          "F125_echoes.csv"
        ]
      }
    },
    {
      "type": "Feature",
      "id": "frozen-legacies-lyra:141",
      "geometry": {
        "type": "MultiLineString",
        "coordinates": [
          [
            [
              167.490134,
              -78.140553
            ],
            [
              167.744803,
              -78.325059
            ],
            [
              168.064267,
              -78.554869
            ],
            [
              168.430813,
              -78.821684
            ],
            [
              170.152785,
              -79.662136
            ],
            [
              170.866982,
              -79.961942
            ],
            [
              171.523702,
              -80.237255
            ],
            [
              172.284378,
              -80.532972
            ],
            [
              173.031564,
              -80.805585
            ],
            [
              174.733197,
              -81.381027
            ],
            [
              176.791442,
              -81.967764
            ],
            [
              177.969136,
              -82.262583
            ],
            [
              179.098626,
              -82.538297
            ],
            [
              -179.522529,
              -82.823825
            ],
            [
              -177.801251,
              -83.272972
            ],
            [
              179.916242,
              -83.235181
            ],
            [
              177.794696,
              -83.189288
            ],
            [
              175.619655,
              -83.117092
            ],
            [
              168.400436,
              -82.82063
            ],
            [
              169.444798,
              -83.005658
            ],
            [
              170.555124,
              -83.225065
            ],
            [
              171.620363,
              -83.422682
            ],
            [
              175.575123,
              -83.57932
            ],
            [
              179.630093,
              -83.675965
            ],
            [
              -176.121314,
              -83.74431
            ]
          ],
          [
            [
              -165.891082,
              -83.769534
            ],
            [
              -163.942314,
              -83.742261
            ],
            [
              -159.869438,
              -83.679708
            ],
            [
              -156.854259,
              -83.503561
            ],
            [
              -157.789795,
              -83.011269
            ]
          ],
          [
            [
              167.510228,
              -78.15685
            ],
            [
              167.769092,
              -78.344255
            ],
            [
              168.087061,
              -78.575378
            ],
            [
              168.465904,
              -78.842086
            ],
            [
              170.185084,
              -79.688138
            ],
            [
              170.922577,
              -79.985243
            ],
            [
              171.570891,
              -80.259168
            ],
            [
              172.341269,
              -80.556273
            ],
            [
              173.090957,
              -80.83029
            ],
            [
              174.814484,
              -81.401628
            ],
            [
              176.882033,
              -81.993767
            ],
            [
              178.054219,
              -82.285885
            ],
            [
              179.204106,
              -82.563094
            ],
            [
              -179.408842,
              -82.844426
            ],
            [
              -177.981719,
              -83.276863
            ],
            [
              179.742962,
              -83.230878
            ],
            [
              177.632522,
              -83.183582
            ],
            [
              175.458777,
              -83.114194
            ],
            [
              168.529522,
              -82.823333
            ],
            [
              169.53768,
              -83.022154
            ],
            [
              170.658716,
              -83.241562
            ],
            [
              171.699253,
              -83.439086
            ],
            [
              173.610196,
              -83.518801
            ],
            [
              175.737501,
              -83.582328
            ],
            [
              179.789878,
              -83.680361
            ],
            [
              -175.965326,
              -83.747211
            ],
            [
              -174.150034,
              -83.76243
            ],
            [
              -170.053224,
              -83.778287
            ],
            [
              -165.735592,
              -83.769734
            ],
            [
              -163.779727,
              -83.739761
            ],
            [
              -161.823332,
              -83.712183
            ],
            [
              -159.713547,
              -83.677207
            ],
            [
              -157.739328,
              -83.637545
            ],
            [
              -156.892537,
              -83.480353
            ],
            [
              -157.381895,
              -83.246459
            ],
            [
              -157.829878,
              -82.992181
            ],
            [
              -158.255569,
              -82.756991
            ],
            [
              -160.257272,
              -82.770678
            ],
            [
              -162.256888,
              -82.81319
            ],
            [
              -164.483272,
              -82.844579
            ],
            [
              -166.520085,
              -82.869194
            ],
            [
              -168.768579,
              -82.882794
            ],
            [
              -170.812184,
              -82.889496
            ],
            [
              -173.006794,
              -82.881111
            ],
            [
              -175.003107,
              -82.865813
            ],
            [
              -177.17562,
              -82.84092
            ],
            [
              -179.126369,
              -82.807832
            ],
            [
              178.740103,
              -82.762341
            ],
            [
              176.73856,
              -82.715354
            ],
            [
              174.617603,
              -82.651967
            ],
            [
              172.705942,
              -82.587175
            ],
            [
              170.756051,
              -82.50598
            ]
          ],
          [
            [
              167.53592,
              -78.174643
            ],
            [
              167.79599,
              -78.364764
            ],
            [
              168.108558,
              -78.595872
            ],
            [
              168.506503,
              -78.863984
            ],
            [
              170.215978,
              -79.71144
            ],
            [
              170.979469,
              -80.007156
            ],
            [
              171.625082,
              -80.283767
            ],
            [
              172.396666,
              -80.580978
            ],
            [
              173.14495,
              -80.853501
            ],
            [
              174.88338,
              -81.423526
            ],
            [
              176.967223,
              -82.017159
            ],
            [
              178.146105,
              -82.310591
            ],
            [
              179.31099,
              -82.582307
            ],
            [
              -179.307573,
              -82.865027
            ],
            [
              -178.156494,
              -83.275369
            ],
            [
              179.547698,
              -83.227979
            ],
            [
              177.455352,
              -83.177983
            ],
            [
              175.289599,
              -83.112592
            ],
            [
              168.611512,
              -82.841141
            ],
            [
              169.619471,
              -83.039948
            ],
            [
              170.741894,
              -83.256669
            ],
            [
              171.848829,
              -83.448885
            ],
            [
              173.77097,
              -83.524509
            ],
            [
              175.901084,
              -83.588021
            ],
            [
              179.957947,
              -83.684758
            ],
            [
              -175.800946,
              -83.747518
            ],
            [
              -173.985439,
              -83.76263
            ],
            [
              -169.887148,
              -83.779983
            ],
            [
              -165.573311,
              -83.768638
            ],
            [
              -163.610227,
              -83.737261
            ],
            [
              -161.662649,
              -83.708691
            ],
            [
              -159.546256,
              -83.670618
            ],
            [
              -157.575043,
              -83.635045
            ],
            [
              -156.930923,
              -83.461157
            ],
            [
              -157.436883,
              -83.225967
            ],
            [
              -157.86575,
              -82.971673
            ],
            [
              -158.31065,
              -82.73508
            ],
            [
              -160.430656,
              -82.773486
            ],
            [
              -162.427373,
              -82.81319
            ],
            [
              -164.647167,
              -82.84879
            ],
            [
              -166.697574,
              -82.870583
            ],
            [
              -168.936363,
              -82.88139
            ],
            [
              -170.978581,
              -82.888094
            ],
            [
              -173.170582,
              -82.882408
            ],
            [
              -175.182093,
              -82.865814
            ],
            [
              -177.333809,
              -82.838219
            ],
            [
              -179.288557,
              -82.802324
            ],
            [
              178.566822,
              -82.756834
            ],
            [
              176.587265,
              -82.709847
            ],
            [
              174.455413,
              -82.646459
            ],
            [
              172.558749,
              -82.580279
            ],
            [
              170.607562,
              -82.499084
            ]
          ],
          [
            [
              167.565625,
              -78.193856
            ],
            [
              167.825786,
              -78.382557
            ],
            [
              168.136843,
              -78.616381
            ],
            [
              168.545804,
              -78.885897
            ],
            [
              170.261977,
              -79.736038
            ],
            [
              171.029572,
              -80.030442
            ],
            [
              171.679166,
              -80.305664
            ],
            [
              172.449362,
              -80.601488
            ],
            [
              173.205746,
              -80.876802
            ],
            [
              174.952263,
              -81.448231
            ],
            [
              177.060606,
              -82.036372
            ],
            [
              178.239396,
              -82.332579
            ],
            [
              179.445274,
              -82.604205
            ],
            [
              -179.221485,
              -82.888328
            ],
            [
              -178.331267,
              -83.271066
            ],
            [
              179.374525,
              -83.223677
            ],
            [
              177.293178,
              -83.172276
            ],
            [
              175.128934,
              -83.106993
            ],
            [
              168.692097,
              -82.857637
            ],
            [
              169.698758,
              -83.055055
            ],
            [
              170.831785,
              -83.274477
            ],
            [
              171.998512,
              -83.457385
            ],
            [
              173.929152,
              -83.528799
            ],
            [
              176.06465,
              -83.595118
            ],
            [
              -179.882161,
              -83.687766
            ],
            [
              -175.621661,
              -83.751915
            ],
            [
              -173.830456,
              -83.762937
            ],
            [
              -169.715564,
              -83.780183
            ],
            [
              -165.409412,
              -83.766138
            ],
            [
              -163.45594,
              -83.73476
            ],
            [
              -161.498749,
              -83.706892
            ],
            [
              -159.36847,
              -83.669521
            ],
            [
              -157.414648,
              -83.629737
            ],
            [
              -156.970897,
              -83.443351
            ],
            [
              -157.480962,
              -83.206772
            ],
            [
              -157.897532,
              -82.952479
            ],
            [
              -158.437937,
              -82.725483
            ],
            [
              -160.586236,
              -82.778979
            ],
            [
              -162.596746,
              -82.818684
            ],
            [
              -164.826044,
              -82.850087
            ],
            [
              -166.854649,
              -82.876091
            ],
            [
              -169.122245,
              -82.882687
            ],
            [
              -171.152058,
              -82.888094
            ],
            [
              -173.33576,
              -82.882409
            ],
            [
              -175.347179,
              -82.864411
            ],
            [
              -177.4974,
              -82.834024
            ],
            [
              -179.450943,
              -82.800937
            ],
            [
              178.405931,
              -82.752639
            ],
            [
              176.422177,
              -82.705758
            ],
            [
              174.284831,
              -82.640967
            ],
            [
              172.40756,
              -82.574771
            ],
            [
              170.479778,
              -82.492188
            ]
          ],
          [
            [
              167.589823,
              -78.215753
            ],
            [
              167.849984,
              -78.400365
            ],
            [
              168.165145,
              -78.636982
            ],
            [
              168.586387,
              -78.907794
            ],
            [
              170.320258,
              -79.75934
            ],
            [
              171.086464,
              -80.052355
            ],
            [
              171.744267,
              -80.326158
            ],
            [
              172.511653,
              -80.624789
            ],
            [
              173.265231,
              -80.900103
            ],
            [
              175.010251,
              -81.470128
            ],
            [
              177.147093,
              -82.06097
            ],
            [
              178.318878,
              -82.355881
            ],
            [
              179.531545,
              -82.627506
            ],
            [
              -179.120309,
              -82.90893
            ],
            [
              -178.490738,
              -83.264077
            ],
            [
              179.202664,
              -83.219374
            ],
            [
              177.117304,
              -83.165289
            ],
            [
              174.954463,
              -83.102691
            ],
            [
              168.775582,
              -82.872637
            ],
            [
              169.777848,
              -83.072863
            ],
            [
              170.932768,
              -83.28957
            ],
            [
              172.159195,
              -83.464481
            ],
            [
              174.104924,
              -83.537299
            ],
            [
              176.220438,
              -83.595333
            ],
            [
              -179.722085,
              -83.689369
            ],
            [
              -175.457281,
              -83.753519
            ],
            [
              -173.665876,
              -83.763137
            ],
            [
              -169.54938,
              -83.78049
            ],
            [
              -165.230425,
              -83.763637
            ],
            [
              -163.291949,
              -83.73226
            ],
            [
              -161.339959,
              -83.704987
            ],
            [
              -159.20957,
              -83.664213
            ],
            [
              -157.262551,
              -83.623147
            ],
            [
              -157.011984,
              -83.421456
            ],
            [
              -157.507252,
              -83.188966
            ],
            [
              -157.940223,
              -82.931972
            ],
            [
              -158.618217,
              -82.728183
            ],
            [
              -160.749825,
              -82.780291
            ],
            [
              -162.761738,
              -82.820087
            ],
            [
              -164.996621,
              -82.851492
            ],
            [
              -167.027835,
              -82.873284
            ],
            [
              -169.287329,
              -82.882688
            ],
            [
              -171.318348,
              -82.885302
            ],
            [
              -173.499441,
              -82.881113
            ],
            [
              -175.512172,
              -82.861711
            ],
            [
              -177.667979,
              -82.831324
            ],
            [
              -179.620226,
              -82.798237
            ],
            [
              178.246245,
              -82.751236
            ],
            [
              176.258493,
              -82.701548
            ],
            [
              174.123846,
              -82.636772
            ],
            [
              172.246559,
              -82.570683
            ],
            [
              170.318884,
              -82.483996
            ]
          ],
          [
            [
              167.60862,
              -78.233454
            ],
            [
              167.874181,
              -78.41947
            ],
            [
              168.19894,
              -78.654774
            ],
            [
              168.629793,
              -78.931096
            ],
            [
              170.378661,
              -79.781237
            ],
            [
              171.128251,
              -80.076953
            ],
            [
              171.813455,
              -80.34946
            ],
            [
              172.557438,
              -80.64809
            ],
            [
              173.339819,
              -80.923405
            ],
            [
              175.079148,
              -81.49343
            ],
            [
              177.233579,
              -82.082975
            ],
            [
              178.399766,
              -82.379183
            ],
            [
              179.632829,
              -82.649511
            ],
            [
              -179.017622,
              -82.929531
            ],
            [
              -178.673598,
              -83.258478
            ],
            [
              179.039087,
              -83.212371
            ],
            [
              176.955038,
              -83.16239
            ],
            [
              174.803287,
              -83.098389
            ],
            [
              168.858975,
              -82.887744
            ],
            [
              169.882829,
              -83.090656
            ],
            [
              171.017365,
              -83.304677
            ],
            [
              172.317269,
              -83.468786
            ],
            [
              174.273999,
              -83.540307
            ],
            [
              176.375919,
              -83.601133
            ],
            [
              -179.562208,
              -83.692377
            ],
            [
              -175.294305,
              -83.755122
            ],
            [
              -173.501495,
              -83.766145
            ],
            [
              -169.384599,
              -83.780691
            ],
            [
              -165.063841,
              -83.762541
            ],
            [
              -163.137661,
              -83.731163
            ],
            [
              -161.189576,
              -83.701098
            ],
            [
              -159.041275,
              -83.661712
            ],
            [
              -157.103759,
              -83.620647
            ],
            [
              -157.058654,
              -83.400964
            ],
            [
              -157.544327,
              -83.168474
            ],
            [
              -157.972007,
              -82.912884
            ],
            [
              -158.788702,
              -82.73099
            ],
            [
              -160.919106,
              -82.784381
            ],
            [
              -162.929829,
              -82.824192
            ],
            [
              -165.155009,
              -82.855581
            ],
            [
              -167.204119,
              -82.876092
            ],
            [
              -169.460714,
              -82.884092
            ],
            [
              -171.486332,
              -82.888095
            ],
            [
              -173.687931,
              -82.879709
            ],
            [
              -175.684354,
              -82.861711
            ],
            [
              -177.816678,
              -82.831324
            ],
            [
              -179.780918,
              -82.791326
            ],
            [
              178.079753,
              -82.747146
            ],
            [
              176.088003,
              -82.696056
            ],
            [
              173.96985,
              -82.631265
            ],
            [
              172.103579,
              -82.563772
            ],
            [
              170.178892,
              -82.474293
            ]
          ],
          [
            [
              167.634206,
              -78.251247
            ],
            [
              167.895679,
              -78.43856
            ],
            [
              168.232733,
              -78.675283
            ],
            [
              168.677287,
              -78.950292
            ],
            [
              170.443852,
              -79.804538
            ],
            [
              171.182351,
              -80.100254
            ],
            [
              171.87294,
              -80.374165
            ],
            [
              172.616938,
              -80.671391
            ],
            [
              173.400617,
              -80.946706
            ],
            [
              175.149433,
              -81.515328
            ],
            [
              177.328351,
              -82.104873
            ],
            [
              178.499737,
              -82.402484
            ],
            [
              179.741009,
              -82.670112
            ],
            [
              -178.908145,
              -82.948728
            ],
            [
              -178.855269,
              -83.256876
            ],
            [
              178.860315,
              -83.209472
            ],
            [
              176.77776,
              -83.158087
            ],
            [
              174.637207,
              -83.089996
            ],
            [
              168.93956,
              -82.904241
            ],
            [
              169.962011,
              -83.107152
            ],
            [
              171.100346,
              -83.32247
            ],
            [
              172.472444,
              -83.477286
            ],
            [
              174.426673,
              -83.546015
            ],
            [
              176.531401,
              -83.606827
            ],
            [
              -179.400819,
              -83.693966
            ],
            [
              -175.138225,
              -83.758115
            ],
            [
              -173.344011,
              -83.769137
            ],
            [
              -169.211413,
              -83.779594
            ],
            [
              -164.919243,
              -83.761444
            ],
            [
              -162.973563,
              -83.728663
            ],
            [
              -161.02418,
              -83.700002
            ],
            [
              -158.885383,
              -83.660525
            ],
            [
              -156.936451,
              -83.61395
            ],
            [
              -157.09573,
              -83.381861
            ],
            [
              -157.58981,
              -83.147967
            ],
            [
              -158.013493,
              -82.893674
            ],
            [
              -158.946998,
              -82.73508
            ],
            [
              -161.088386,
              -82.788485
            ],
            [
              -163.119707,
              -82.826878
            ],
            [
              -165.34069,
              -82.855581
            ],
            [
              -167.3705,
              -82.875985
            ],
            [
              -169.632803,
              -82.885496
            ],
            [
              -171.652713,
              -82.885303
            ],
            [
              -173.854313,
              -82.876903
            ],
            [
              -175.841139,
              -82.860308
            ],
            [
              -177.987365,
              -82.829922
            ],
            [
              -179.943305,
              -82.788533
            ],
            [
              177.913262,
              -82.74434
            ],
            [
              175.915911,
              -82.693356
            ],
            [
              173.815761,
              -82.625772
            ],
            [
              171.959286,
              -82.556876
            ],
            [
              170.043997,
              -82.470189
            ]
          ],
          [
            [
              167.668107,
              -78.269055
            ],
            [
              167.92398,
              -78.456369
            ],
            [
              168.25693,
              -78.694373
            ],
            [
              168.717871,
              -78.970801
            ],
            [
              170.518641,
              -79.823643
            ],
            [
              171.224139,
              -80.122152
            ],
            [
              171.922935,
              -80.396062
            ],
            [
              172.679124,
              -80.694587
            ],
            [
              173.477799,
              -80.970008
            ],
            [
              175.226523,
              -81.538629
            ],
            [
              177.416242,
              -82.125474
            ],
            [
              178.602624,
              -82.42719
            ],
            [
              179.8507,
              -82.690713
            ],
            [
              -178.797465,
              -82.97203
            ],
            [
              -179.036847,
              -83.252573
            ],
            [
              178.686943,
              -83.207978
            ],
            [
              176.608797,
              -83.153785
            ],
            [
              174.47224,
              -83.085694
            ],
            [
              169.007756,
              -82.923346
            ],
            [
              170.0411,
              -83.123556
            ],
            [
              171.186133,
              -83.337577
            ],
            [
              172.63592,
              -83.482995
            ],
            [
              174.595747,
              -83.551815
            ],
            [
              176.704871,
              -83.609834
            ],
            [
              -179.240942,
              -83.698271
            ],
            [
              -174.975141,
              -83.758422
            ],
            [
              -173.172536,
              -83.769445
            ],
            [
              -169.063018,
              -83.779794
            ],
            [
              -164.745762,
              -83.758944
            ],
            [
              -162.804186,
              -83.727566
            ],
            [
              -160.834996,
              -83.693397
            ],
            [
              -158.716995,
              -83.658025
            ],
            [
              -156.784571,
              -83.612854
            ],
            [
              -157.128715,
              -83.362758
            ],
            [
              -157.607799,
              -83.130267
            ],
            [
              -158.065874,
              -82.871778
            ],
            [
              -159.106482,
              -82.736484
            ],
            [
              -161.242485,
              -82.791278
            ],
            [
              -163.283387,
              -82.828281
            ],
            [
              -165.498878,
              -82.856894
            ],
            [
              -167.560394,
              -82.877389
            ],
            [
              -169.799276,
              -82.88539
            ],
            [
              -171.810994,
              -82.885303
            ],
            [
              -174.011405,
              -82.878306
            ],
            [
              -176.007521,
              -82.856113
            ],
            [
              -178.163345,
              -82.825726
            ],
            [
              179.888816,
              -82.787131
            ],
            [
              177.740088,
              -82.738848
            ],
            [
              175.745422,
              -82.687757
            ],
            [
              173.660377,
              -82.620265
            ],
            [
              171.814794,
              -82.551384
            ],
            [
              169.902404,
              -82.461996
            ]
          ],
          [
            [
              167.6909,
              -78.289549
            ],
            [
              167.949581,
              -78.476862
            ],
            [
              168.283829,
              -78.716286
            ],
            [
              168.769469,
              -78.993996
            ],
            [
              170.58513,
              -79.845542
            ],
            [
              171.285135,
              -80.148154
            ],
            [
              171.983931,
              -80.419363
            ],
            [
              172.749609,
              -80.716591
            ],
            [
              173.545491,
              -80.993309
            ],
            [
              175.320106,
              -81.55923
            ],
            [
              177.504024,
              -82.151476
            ],
            [
              178.704,
              -82.449195
            ],
            [
              179.961565,
              -82.714015
            ],
            [
              -178.700393,
              -82.994035
            ],
            [
              -179.210204,
              -83.251079
            ],
            [
              178.509681,
              -83.200882
            ],
            [
              176.431426,
              -83.150886
            ],
            [
              174.321064,
              -83.082796
            ],
            [
              169.110343,
              -82.938453
            ],
            [
              170.126994,
              -83.141456
            ],
            [
              171.263727,
              -83.355371
            ],
            [
              172.79401,
              -83.488794
            ],
            [
              174.75663,
              -83.556119
            ],
            [
              176.860445,
              -83.612826
            ],
            [
              -179.071362,
              -83.701278
            ],
            [
              -174.803757,
              -83.758622
            ],
            [
              -173.014852,
              -83.771049
            ],
            [
              -168.896834,
              -83.780101
            ],
            [
              -164.586075,
              -83.757756
            ],
            [
              -162.648296,
              -83.723677
            ],
            [
              -160.681896,
              -83.690897
            ],
            [
              -158.563696,
              -83.654227
            ],
            [
              -156.655465,
              -83.600648
            ],
            [
              -157.165897,
              -83.343563
            ],
            [
              -157.636774,
              -83.109669
            ],
            [
              -158.097749,
              -82.854079
            ],
            [
              -159.266258,
              -82.743289
            ],
            [
              -161.411659,
              -82.792682
            ],
            [
              -163.458268,
              -82.832386
            ],
            [
              -165.668159,
              -82.858282
            ],
            [
              -167.731077,
              -82.87739
            ],
            [
              -169.963172,
              -82.888197
            ],
            [
              -171.977483,
              -82.8839
            ],
            [
              -174.175086,
              -82.876904
            ],
            [
              -176.17131,
              -82.854816
            ],
            [
              -178.32013,
              -82.821623
            ],
            [
              179.734731,
              -82.783027
            ],
            [
              177.580493,
              -82.734744
            ],
            [
              175.588542,
              -82.683653
            ],
            [
              173.499285,
              -82.617474
            ],
            [
              171.636002,
              -82.544488
            ],
            [
              169.748314,
              -82.456397
            ]
          ],
          [
            [
              167.973778,
              -78.49467
            ],
            [
              168.31213,
              -78.738184
            ],
            [
              168.814172,
              -79.014597
            ],
            [
              170.659918,
              -79.867439
            ],
            [
              171.347626,
              -80.170159
            ],
            [
              172.039312,
              -80.439873
            ],
            [
              172.814601,
              -80.738488
            ],
            [
              173.603587,
              -81.016611
            ],
            [
              175.403893,
              -81.585232
            ],
            [
              177.594707,
              -82.172078
            ],
            [
              178.793095,
              -82.471092
            ],
            [
              -179.949449,
              -82.736019
            ],
            [
              -178.589605,
              -83.013231
            ],
            [
              -179.383575,
              -83.249568
            ],
            [
              178.337911,
              -83.19658
            ],
            [
              176.263745,
              -83.14518
            ],
            [
              174.16998,
              -83.077197
            ],
            [
              169.193628,
              -82.954949
            ],
            [
              170.199387,
              -83.155159
            ],
            [
              171.355007,
              -83.371882
            ],
            [
              172.958674,
              -83.497189
            ],
            [
              174.919008,
              -83.560515
            ],
            [
              177.040627,
              -83.617131
            ],
            [
              -178.909989,
              -83.702973
            ],
            [
              -174.648974,
              -83.760227
            ],
            [
              -172.850257,
              -83.771249
            ],
            [
              -168.738752,
              -83.780302
            ],
            [
              -164.432976,
              -83.752554
            ],
            [
              -162.492604,
              -83.722474
            ],
            [
              -160.521901,
              -83.688396
            ],
            [
              -158.400707,
              -83.650323
            ],
            [
              -156.671434,
              -83.576052
            ],
            [
              -157.202972,
              -83.324459
            ],
            [
              -157.644952,
              -83.089269
            ],
            [
              -158.133637,
              -82.834884
            ],
            [
              -159.430046,
              -82.747378
            ],
            [
              -161.590751,
              -82.799487
            ],
            [
              -163.615159,
              -82.835087
            ],
            [
              -165.83335,
              -82.860984
            ],
            [
              -167.901655,
              -82.878687
            ],
            [
              -170.125556,
              -82.888198
            ],
            [
              -172.157672,
              -82.882497
            ],
            [
              -174.340172,
              -82.876904
            ],
            [
              -176.334901,
              -82.850621
            ],
            [
              -178.476917,
              -82.818922
            ],
            [
              179.565539,
              -82.778939
            ],
            [
              177.400208,
              -82.731953
            ],
            [
              175.424949,
              -82.678161
            ],
            [
              173.338499,
              -82.610562
            ],
            [
              171.498514,
              -82.53898
            ],
            [
              169.608124,
              -82.449593
            ]
          ],
          [
            [
              167.715098,
              -78.308654
            ],
            [
              167.993871,
              -78.513775
            ],
            [
              168.345924,
              -78.758678
            ],
            [
              168.865755,
              -79.035105
            ],
            [
              170.704514,
              -79.889336
            ],
            [
              171.405815,
              -80.19346
            ],
            [
              172.105816,
              -80.463174
            ],
            [
              172.90019,
              -80.76449
            ],
            [
              173.665772,
              -81.038508
            ],
            [
              175.48797,
              -81.607237
            ],
            [
              177.689294,
              -82.196782
            ],
            [
              178.897171,
              -82.493098
            ],
            [
              -179.852469,
              -82.76071
            ],
            [
              -178.46254,
              -83.037937
            ],
            [
              -179.565047,
              -83.243877
            ],
            [
              178.159031,
              -83.195085
            ],
            [
              176.096276,
              -83.138193
            ],
            [
              174.005104,
              -83.071492
            ],
            [
              169.276914,
              -82.972743
            ],
            [
              170.294771,
              -83.174357
            ],
            [
              171.447598,
              -83.386974
            ],
            [
              173.123553,
              -83.503003
            ],
            [
              175.071696,
              -83.566208
            ],
            [
              177.197604,
              -83.621542
            ],
            [
              -178.749897,
              -83.704578
            ],
            [
              -174.492695,
              -83.761831
            ],
            [
              -172.676172,
              -83.774242
            ],
            [
              -168.565671,
              -83.780594
            ],
            [
              -164.275897,
              -83.750054
            ],
            [
              -162.313508,
              -83.719974
            ],
            [
              -160.355116,
              -83.6873
            ],
            [
              -158.225516,
              -83.649135
            ],
            [
              -156.727916,
              -83.55965
            ],
            [
              -157.241359,
              -83.302564
            ],
            [
              -157.675437,
              -83.071478
            ],
            [
              -158.159927,
              -82.814377
            ],
            [
              -159.591134,
              -82.752887
            ],
            [
              -161.762732,
              -82.802188
            ],
            [
              -163.78154,
              -82.835088
            ],
            [
              -166.01914,
              -82.862388
            ],
            [
              -168.082044,
              -82.881495
            ],
            [
              -170.290733,
              -82.889495
            ],
            [
              -172.331058,
              -82.882498
            ],
            [
              -174.505364,
              -82.876905
            ],
            [
              -176.500079,
              -82.849218
            ],
            [
              -178.639211,
              -82.814727
            ],
            [
              179.404556,
              -82.776132
            ],
            [
              177.235121,
              -82.727849
            ],
            [
              175.268268,
              -82.671265
            ],
            [
              173.192711,
              -82.60507
            ],
            [
              171.354221,
              -82.532084
            ],
            [
              169.471841,
              -82.445398
            ]
          ],
          [
            [
              168.030458,
              -78.534376
            ],
            [
              168.370121,
              -78.777783
            ],
            [
              168.916058,
              -79.057003
            ],
            [
              170.753198,
              -79.914041
            ],
            [
              171.4709,
              -80.212565
            ],
            [
              172.179093,
              -80.485072
            ],
            [
              172.971973,
              -80.785092
            ],
            [
              173.733358,
              -81.063107
            ],
            [
              175.566265,
              -81.631836
            ],
            [
              177.779869,
              -82.218772
            ],
            [
              179.001353,
              -82.517803
            ],
            [
              -179.753885,
              -82.781219
            ],
            [
              -178.363956,
              -83.055838
            ],
            [
              -179.738419,
              -83.240978
            ],
            [
              177.973362,
              -83.193575
            ],
            [
              175.936894,
              -83.131189
            ],
            [
              173.854036,
              -83.0658
            ],
            [
              169.368499,
              -82.98785
            ],
            [
              170.369756,
              -83.189464
            ],
            [
              171.533385,
              -83.404783
            ],
            [
              173.276242,
              -83.507293
            ],
            [
              175.24216,
              -83.57062
            ],
            [
              177.370982,
              -83.625939
            ],
            [
              -178.572124,
              -83.708974
            ],
            [
              -174.328207,
              -83.762123
            ],
            [
              -172.511593,
              -83.774549
            ],
            [
              -168.399271,
              -83.778093
            ],
            [
              -164.118694,
              -83.74615
            ],
            [
              -162.147913,
              -83.716177
            ],
            [
              -160.193518,
              -83.682007
            ],
            [
              -158.073727,
              -83.648038
            ],
            [
              -156.771903,
              -83.541859
            ],
            [
              -157.293737,
              -83.284758
            ],
            [
              -157.718129,
              -83.05097
            ],
            [
              -158.191803,
              -82.795289
            ],
            [
              -159.754923,
              -82.75838
            ],
            [
              -161.923911,
              -82.807681
            ],
            [
              -163.961821,
              -82.837789
            ],
            [
              -166.184315,
              -82.865089
            ],
            [
              -168.245724,
              -82.881496
            ],
            [
              -170.458518,
              -82.889496
            ],
            [
              -172.504444,
              -82.882498
            ],
            [
              -174.663339,
              -82.871412
            ],
            [
              -176.684465,
              -82.847814
            ],
            [
              -178.808585,
              -82.814728
            ],
            [
              179.235365,
              -82.772044
            ],
            [
              177.075526,
              -82.723654
            ],
            [
              175.104477,
              -82.668459
            ],
            [
              173.018115,
              -82.598174
            ],
            [
              171.205731,
              -82.52528
            ],
            [
              169.316546,
              -82.435801
            ]
          ],
          [
            [
              177.871756,
              -82.243386
            ],
            [
              -179.634706,
              -82.803224
            ],
            [
              -179.910387,
              -83.239468
            ],
            [
              175.785827,
              -83.122691
            ],
            [
              170.46514,
              -83.207272
            ],
            [
              175.404552,
              -83.574925
            ],
            [
              177.519859,
              -83.627542
            ],
            [
              -178.411042,
              -83.714683
            ],
            [
              -172.363414,
              -83.774749
            ],
            [
              -168.218091,
              -83.781101
            ],
            [
              -161.983921,
              -83.714989
            ],
            [
              -160.034926,
              -83.680804
            ],
            [
              -157.898227,
              -83.641434
            ],
            [
              -156.819871,
              -83.521351
            ],
            [
              -157.343325,
              -83.265562
            ],
            [
              -157.7567,
              -83.030479
            ],
            [
              -158.218186,
              -82.776079
            ],
            [
              -159.91331,
              -82.763888
            ],
            [
              -162.091804,
              -82.811877
            ],
            [
              -164.125609,
              -82.841893
            ],
            [
              -166.356296,
              -82.866492
            ],
            [
              -168.420513,
              -82.882793
            ],
            [
              -170.645711,
              -82.889496
            ],
            [
              -172.66962,
              -82.882499
            ],
            [
              -174.836832,
              -82.871306
            ],
            [
              -176.855151,
              -82.847815
            ],
            [
              -178.964075,
              -82.812028
            ],
            [
              179.082682,
              -82.769236
            ],
            [
              176.910438,
              -82.71955
            ],
            [
              174.94218,
              -82.662966
            ],
            [
              172.864027,
              -82.594071
            ],
            [
              171.055838,
              -82.518384
            ],
            [
              169.183252,
              -82.430294
            ]
          ]
        ]
      },
      "properties": {
        "dataset_id": "frozen-legacies-lyra",
        "flight": "141",
        "observations": 633,
        "segments": 14,
        "sources": [
          "F141_echoes.csv"
        ]
      }
    }
  ]
}